OBJECT_NAME,OBJECT_ID,EPOCH,MEAN_MOTION,ECCENTRICITY,INCLINATION,RA_OF_ASC_NODE,ARG_OF_PERICENTER,MEAN_ANOMALY,EPHEMERIS_TYPE,CLASSIFICATION_TYPE,NORAD_CAT_ID,ELEMENT_SET_NO,REV_AT_EPOCH,BSTAR,MEAN_MOTION_DOT,MEAN_MOTION_DDOT
OTB-3-GAZELLE,2022-127A,2026-07-07T10:48:36.832320,14.42681984,.0014207,98.3954,179.8470,124.3715,235.8821,0,U,54023,999,19728,.51029E-4,.127E-5,0
ASO-S,2022-129A,2026-07-07T12:18:18.148320,14.52072100,.001509,98.2752,193.3023,34.9216,325.2966,0,U,54029,999,19837,.57236E-4,.187E-5,0
HJ-2E,2022-132A,2026-07-07T12:40:42.522816,15.22623309,.0018233,97.3805,192.5415,300.3167,59.6265,0,U,54035,999,20751,.22147E-3,.5102E-4,0
COSMOS 2561,2022-137A,2026-07-07T12:53:17.917152,15.52233315,.0008328,96.9171,246.7813,315.7006,44.3581,0,U,54109,999,20950,.15399E-3,.9263E-4,0
GONETS-M 23,2022-139A,2026-07-07T11:13:12.503712,12.42891648,.0021803,82.5087,335.6900,174.9647,185.1656,0,U,54150,999,16816,.22437E-3,.41E-6,0
GONETS-M 24,2022-139B,2026-07-07T12:30:20.558592,12.42892269,.0016863,82.5004,334.7025,184.5234,175.5696,0,U,54151,999,16817,.18844E-3,.36E-6,0
GONETS-M 25,2022-139C,2026-07-07T12:10:47.235360,12.42890676,.0020795,82.5070,335.4083,183.6018,176.4915,0,U,54152,999,16817,.1409E-3,.29E-6,0
SKIF-D,2022-139D,2026-07-06T05:50:44.187072,5.00428231,.0007403,89.9492,96.6626,191.0799,168.9710,0,U,54153,999,6506,0,.1E-6,0
MATS,2022-147A,2026-07-07T10:54:56.918016,15.05479824,.0014158,97.6831,189.9649,125.9330,234.3213,0,U,54227,999,20081,.12913E-3,.1797E-4,0
JILIN-1 GAOFEN 03D54,2022-155D,2026-07-05T06:00:36.762336,16.32834755,.00121273,97.6143,342.1130,265.6441,94.3468,0,U,54254,999,20320,.79772039E-3,.4646595E-1,.2640223E-5
EOS-6 (OCEANSAT-3),2022-158A,2026-07-07T13:28:48.088416,14.46981422,.0000266,98.3548,286.4862,69.1666,290.9554,0,U,54361,999,19078,.70111E-4,.211E-5,0
DONGPO 09,2022-167D,2026-07-07T12:47:11.353056,15.36812217,.0003239,97.6918,0.4561,69.6191,290.5400,0,U,54685,999,19857,.23467E-3,.8357E-4,0
DONGPO 08,2022-167E,2026-07-07T13:10:50.037600,15.34076834,.0009397,97.6882,357.5542,96.9580,263.2731,0,U,54686,999,19844,.23254E-3,.7593E-4,0
2022-167F,2022-167F,2026-07-07T04:18:18.082944,16.06863953,.0005489,97.6045,18.7609,246.7937,113.2766,0,U,54687,999,20002,.68258E-3,.518976E-2,.13319E-3
DONGPO 10,2022-167H,2026-07-07T13:04:53.152032,15.34891524,.0005592,97.6963,359.5496,51.8355,308.3390,0,U,54689,999,19848,.22717E-3,.7604E-4,0
JILIN-1 GAOFEN 03D48,2022-167P,2026-07-07T12:46:46.519968,15.35678409,.0007031,97.6898,358.9216,54.2717,305.9179,0,U,54695,999,19851,.22983E-3,.7893E-4,0
STAR VIBE,2023-001A,2026-07-07T11:17:02.158368,15.43204163,.0006236,97.3157,253.0223,55.0179,305.1654,0,U,55009,999,19535,.23462E-3,.10332E-3,0
BRO-8,2023-001C,2026-07-07T12:25:06.947328,15.50390569,.0005645,97.3189,254.0108,65.4338,294.7501,0,U,55011,999,19535,.42022E-3,.23833E-3,0
CONNECTA T1.2,2023-001D,2026-07-07T03:57:07.255584,15.52395211,.0004677,97.3240,259.2291,38.2413,321.9171,0,U,55012,999,19564,.52431E-3,.31987E-3,0
BIRKELAND,2023-001G,2026-07-07T11:32:46.122432,15.40447252,.0007248,97.3334,256.5064,46.2226,313.9619,0,U,55015,999,19547,.15229E-3,.6085E-4,0
ION SCV-008,2023-001AU,2026-07-06T21:00:16.013376,15.28814771,.0013378,97.5709,284.5261,305.9188,54.0809,0,U,55051,999,19434,.18516E-3,.5118E-4,0
ION SCV-007,2023-001BD,2026-07-07T02:35:03.302304,14.77571345,.0010901,97.8996,250.7267,271.5873,88.4089,0,U,55060,999,18919,.58428E-4,.367E-5,0
HUYGENS,2023-001CN,2026-07-07T11:32:53.407680,15.40446900,.0009311,97.3238,255.7100,21.2470,338.9161,0,U,55093,999,19549,.18096E-3,.7252E-4,0
SHARJAHSAT-1,2023-001CZ,2026-07-07T12:29:23.424864,15.49904237,.0005562,97.3157,257.5782,44.8970,315.2730,0,U,55104,999,19564,.25743E-3,.14298E-3,0
HORUS 1,2023-025A,2026-07-07T12:22:30.966816,15.23484045,.0002627,97.3453,262.6827,125.0821,235.0663,0,U,55690,999,18714,.16028E-3,.3753E-4,0
HORUS 2,2023-032A,2026-07-07T11:37:42.566016,15.23290639,.000069,97.3525,263.4787,114.2162,245.9147,0,U,55844,999,18457,.16427E-3,.3826E-4,0
GLOBAL-19,2023-041B,2026-07-06T02:56:39.954624,15.38514598,.00080337,42.0015,91.4283,156.0579,204.0636,0,U,55982,999,18484,.3680252E-3,.14081E-3,0
ION SCV-010,2023-054Q,2026-07-07T05:19:10.089120,15.26376477,.0014192,97.3751,77.4665,129.0986,231.1517,0,U,56192,999,17925,.13329E-3,.3402E-4,0
TELEOS-2,2023-057C,2026-07-06T00:26:26.622816,14.96460130,.00053728,9.9986,67.0699,278.7572,81.2033,0,U,56310,999,17562,.47401633E-3,.6226E-4,0
SNIPE 4,2023-072B,2026-07-07T12:22:50.731680,15.43164574,.000413,97.5241,35.1751,238.4990,121.5854,0,U,56744,999,17324,.32525E-3,.14335E-3,0
