OTB-3-GAZELLE           
1 54023U 22127A   26188.45042630  .00000127  00000+0  51029-4 0  9997
2 54023  98.3954 179.8470 0014207 124.3715 235.8821 14.42681984197280
ASO-S                   
1 54029U 22129A   26188.51271005  .00000187  00000+0  57236-4 0  9994
2 54029  98.2752 193.3023 0015090  34.9216 325.2966 14.52072100198379
HJ-2E                   
1 54035U 22132A   26188.52826994  .00005102  00000+0  22147-3 0  9993
2 54035  97.3805 192.5415 0018233 300.3167  59.6265 15.22623309207516
COSMOS 2561             
1 54109U 22137A   26188.53701293  .00009263  00000+0  15399-3 0  9998
2 54109  96.9171 246.7813 0008328 315.7006  44.3581 15.52233315209509
GONETS-M 23             
1 54150U 22139A   26188.46750583  .00000041  00000+0  22437-3 0  9990
2 54150  82.5087 335.6900 0021803 174.9647 185.1656 12.42891648168164
GONETS-M 24             
1 54151U 22139B   26188.52107128  .00000036  00000+0  18844-3 0  9990
2 54151  82.5004 334.7025 0016863 184.5234 175.5696 12.42892269168179
GONETS-M 25             
1 54152U 22139C   26188.50749115  .00000029  00000+0  14090-3 0  9998
2 54152  82.5070 335.4083 0020795 183.6018 176.4915 12.42890676168178
SKIF-D                  
1 54153U 22139D   26187.24356698  .00000010  00000+0  00000+0 0  9991
2 54153  89.9492  96.6626 0007403 191.0799 168.9710  5.00428231 65060
MATS                    
1 54227U 22147A   26188.45482544  .00001797  00000+0  12913-3 0  9999
2 54227  97.6831 189.9649 0014158 125.9330 234.3213 15.05479824200818
JILIN-1 GAOFEN 03D54    
1 54254U 22155D   26186.25042549  .04646595  26402-5  79772-3 0  9992
2 54254  97.6143 342.1130 0012127 265.6441  94.3468 16.32834755203202
EOS-6 (OCEANSAT-3)      
1 54361U 22158A   26188.56166769  .00000211  00000+0  70111-4 0  9995
2 54361  98.3548 286.4862 0000266  69.1666 290.9554 14.46981422190782
DONGPO 09               
1 54685U 22167D   26188.53277029  .00008357  00000+0  23467-3 0  9993
2 54685  97.6918   0.4561 0003239  69.6191 290.5400 15.36812217198571
DONGPO 08               
1 54686U 22167E   26188.54919025  .00007593  00000+0  23254-3 0  9999
2 54686  97.6882 357.5542 0009397  96.9580 263.2731 15.34076834198448
2022-167F               
1 54687U 22167F   26188.17937596  .00518976  13319-3  68258-3 0  9998
2 54687  97.6045  18.7609 0005489 246.7937 113.2766 16.06863953200025
DONGPO 10               
1 54689U 22167H   26188.54505963  .00007604  00000+0  22717-3 0  9990
2 54689  97.6963 359.5496 0005592  51.8355 308.3390 15.34891524198481
JILIN-1 GAOFEN 03D48    
1 54695U 22167P   26188.53248287  .00007893  00000+0  22983-3 0  9994
2 54695  97.6898 358.9216 0007031  54.2717 305.9179 15.35678409198515
STAR VIBE               
1 55009U 23001A   26188.47016387  .00010332  00000+0  23462-3 0  9994
2 55009  97.3157 253.0223 0006236  55.0179 305.1654 15.43204163195350
BRO-8                   
1 55011U 23001C   26188.51744152  .00023833  00000+0  42022-3 0  9993
2 55011  97.3189 254.0108 0005645  65.4338 294.7501 15.50390569195354
CONNECTA T1.2           
1 55012U 23001D   26188.16466731  .00031987  00000+0  52431-3 0  9993
2 55012  97.3240 259.2291 0004677  38.2413 321.9171 15.52395211195648
BIRKELAND               
1 55015U 23001G   26188.48108938  .00006085  00000+0  15229-3 0  9998
2 55015  97.3334 256.5064 0007248  46.2226 313.9619 15.40447252195470
ION SCV-008             
1 55051U 23001AU  26187.87518534  .00005118  00000+0  18516-3 0  9995
2 55051  97.5709 284.5261 0013378 305.9188  54.0809 15.28814771194340
ION SCV-007             
1 55060U 23001BD  26188.10767711  .00000367  00000+0  58428-4 0  9993
2 55060  97.8996 250.7267 0010901 271.5873  88.4089 14.77571345189198
HUYGENS                 
1 55093U 23001CN  26188.48117370  .00007252  00000+0  18096-3 0  9996
2 55093  97.3238 255.7100 0009311  21.2470 338.9161 15.40446900195498
SHARJAHSAT-1            
1 55104U 23001CZ  26188.52041001  .00014298  00000+0  25743-3 0  9996
2 55104  97.3157 257.5782 0005562  44.8970 315.2730 15.49904237195645
HORUS 1                 
1 55690U 23025A   26188.51563619  .00003753  00000+0  16028-3 0  9995
2 55690  97.3453 262.6827 0002627 125.0821 235.0663 15.23484045187149
HORUS 2                 
1 55844U 23032A   26188.48452044  .00003826  00000+0  16427-3 0  9993
2 55844  97.3525 263.4787 0000690 114.2162 245.9147 15.23290639184575
GLOBAL-19               
1 55982U 23041B   26187.12268466  .00014081  00000+0  36803-3 0  9994
2 55982  42.0015  91.4283 0008033 156.0579 204.0636 15.38514598184842
ION SCV-010             
1 56192U 23054Q   26188.22164455  .00003402  00000+0  13329-3 0  9990
2 56192  97.3751  77.4665 0014192 129.0986 231.1517 15.26376477179256
TELEOS-2                
1 56310U 23057C   26187.01836369  .00006226  00000+0  47402-3 0  9997
2 56310   9.9986  67.0699 0005372 278.7572  81.2033 14.96460130175622
SNIPE 4                 
1 56744U 23072B   26188.51586495  .00014335  00000+0  32525-3 0  9993
2 56744  97.5241  35.1751 0004130 238.4990 121.5854 15.43164574173244
